NAVSTAR 48 (USA 151)    
1 26407U 00040A   26194.22189016  .00000082  00000+0  00000+0 0  9992
2 26407  54.8487 214.1281 0120542 302.7144  58.9948  2.00557807190479
NAVSTAR 51 (USA 166)    
1 27663U 03005A   26194.04623635  .00000085  00000+0  00000+0 0  9994
2 27663  54.8792 213.9414 0148236  53.1636 317.9078  2.00559112171833
NAVSTAR 54 (USA 177)    
1 28190U 04009A   26194.27058265 -.00000006  00000+0  00000+0 0  9995
2 28190  54.8082 274.6324 0117121 174.2567 151.3848  2.00553733163460
NAVSTAR 56 (USA 180)    
1 28474U 04045A   26194.30524642 -.00000088  00000+0  00000+0 0  9991
2 28474  55.1194 323.8445 0170150 317.0130  98.7272  2.00556928158950
NAVSTAR 57 (USA 183)    
1 28874U 05038A   26194.27298905  .00000000  00000+0  00000+0 0  9997
2 28874  54.8570 272.1236 0128186 296.3927  60.6178  2.00563793152356
INMARSAT 4-F2           
1 28899U 05044A   26194.01898322 -.00000266  00000+0  00000+0 0  9997
2 28899   5.1282  43.6566 0002775  60.2901 337.2817  1.00270656 75780
NAVSTAR 58 (USA 190)    
1 29486U 06042A   26193.60865181  .00000019  00000+0  00000+0 0  9995
2 29486  54.7127 150.3297 0107100  55.0722  81.1518  2.00568349144903
NAVSTAR 59 (USA 192)    
1 29601U 06052A   26193.84648130  .00000088  00000+0  00000+0 0  9990
2 29601  54.9325 212.9890 0084774  90.9940 270.0357  2.00559526143927
NAVSTAR 60 (USA 196)    
1 32260U 07047A   26194.15209012 -.00000037  00000+0  00000+0 0  9992
2 32260  54.1142  78.9955 0167712  87.9420 274.0302  2.00553960137334
COSMOS 2433 [GLONASS-M] 
1 32275U 07052A   26194.19405126 -.00000064  00000+0  00000+0 0  9992
2 32275  65.5610 315.0591 0003428 203.4008 156.5874  2.13104146145617
COSMOS 2432 [GLONASS-M] 
1 32276U 07052B   26194.33467700 -.00000064  00000+0  00000+0 0  9995
2 32276  65.5770 315.1826 0007410 322.5345  89.1221  2.13103091145647
NAVSTAR 61 (USA 199)    
1 32384U 07062A   26192.44748571 -.00000003  00000+0  00000+0 0  9997
2 32384  55.0124 273.1765 0036030 167.2486 169.8682  2.00561362135998
COSMOS 2434 [GLONASS-M] 
1 32393U 07065A   26192.61775593  .00000105  00000+0  00000+0 0  9995
2 32393  64.3201 191.0916 0001261 325.8599 154.5630  2.13101327144290
COSMOS 2436 [GLONASS-M] 
1 32395U 07065C   26192.29089645  .00000110  00000+0  00000+0 0  9993
2 32395  64.3285 191.1750 0017323 353.6446   8.2320  2.13100061144247
NAVSTAR 62 (USA 201)    
1 32711U 08012A   26194.06094562  .00000012  00000+0  00000+0 0  9990
2 32711  54.4999 148.8911 0211659 248.1311 109.5665  2.00573034134275
NAVSTAR 64 (USA 206)    
1 35752U 09043A   26194.27717172 -.00000061  00000+0  00000+0 0  9990
2 35752  56.2266  26.4280 0053737  84.2969  79.5944  2.00552799123885
COSMOS 2456 [GLONASS-M] 
1 36111U 09070A   26194.31824161 -.00000012  00000+0  00000+0 0  9998
2 36111  65.0263  70.0814 0003668 340.1479 163.1185  2.13103648128988
COSMOS 2457 [GLONASS-M] 
1 36112U 09070B   26194.19579927 -.00000012  00000+0  00000+0 0  9992
2 36112  65.0119  69.9289 0004057 121.6317  54.8708  2.13101160128982
COSMOS 2460 [GLONASS-M] 
1 36402U 10007C   26193.95878219 -.00000063  00000+0  00000+0 0  9991
2 36402  65.4044 313.5954 0001806 142.3803 214.2494  2.13101655127275
NAVSTAR 65 (USA 213)    
1 36585U 10022A   26192.37366262  .00000105  00000+0  00000+0 0  9991
2 36585  54.2688 207.5878 0126647  66.1538 283.0764  2.00563533118078
BEIDOU-2 IGSO-1         
1 36828U 10036A   26193.88960631 -.00000103  00000+0  00000+0 0  9992
2 36828  54.3059 162.7278 0059161 225.3005 330.1612  1.00264571 58350
BEIDOU-2 G4             
1 37210U 10057A   26194.34507770 -.00000120  00000+0  00000+0 0  9993
2 37210   3.7085  68.7785 0005648 184.7406 321.8609  1.00269815 57555
BEIDOU-2 IGSO-2         
1 37256U 10068A   26193.68370150 -.00000189  00000+0  00000+0 0  9996
2 37256  47.5013 271.5143 0057121 213.7768 159.7282  1.00274134 57051
BEIDOU-2 IGSO-3         
1 37384U 11013A   26193.51258941 -.00000165  00000+0  00000+0 0  9998
2 37384  62.4426  39.9128 0035266 183.3051 358.3524  1.00260977 55918
GSAT-8                  
1 37605U 11022A   26194.21545284  .00000080  00000+0  00000+0 0  9996
2 37605   2.1959  81.5069 0002742 165.3995 176.8323  1.00272478 53471
BEIDOU-2 IGSO-4         
1 37763U 11038A   26193.91136250 -.00000017  00000+0  00000+0 0  9994
2 37763  54.6038 165.4445 0160342 231.4539 316.2369  1.00279714 54905
GSAT0101 (GALILEO-PFM)  
1 37846U 11060A   26192.48495571 -.00000086  00000+0  00000+0 0  9992
2 37846  56.9857 341.1030 0002335  61.2388 298.7767  1.70475532 91531
GSAT0102 (GALILEO-FM2)  
1 37847U 11060B   26193.00368770 -.00000088  00000+0  00000+0 0  9994
2 37847  56.9863 341.0894 0002305  10.3981 353.6194  1.70475812 91555
COSMOS 2476 [GLONASS-M] 
1 37867U 11064A   26193.55161227 -.00000014  00000+0  00000+0 0  9997
2 37867  65.2838  72.0157 0022175 236.1448 307.3113  2.13103818114306
COSMOS 2477 [GLONASS-M] 
1 37868U 11064B   26194.25139513 -.00000011  00000+0  00000+0 0  9996
2 37868  65.2909  72.0718 0019164 236.9325 303.6378  2.13102976114312
COSMOS 2475 [GLONASS-M] 
1 37869U 11064C   26194.29456664 -.00000011  00000+0  00000+0 0  9990
2 37869  65.2976  72.0922 0024876 251.2845 277.4172  2.13101804114327
